OBJECT_NAME,OBJECT_ID,EPOCH,MEAN_MOTION,ECCENTRICITY,INCLINATION,RA_OF_ASC_NODE,ARG_OF_PERICENTER,MEAN_ANOMALY,EPHEMERIS_TYPE,CLASSIFICATION_TYPE,NORAD_CAT_ID,ELEMENT_SET_NO,REV_AT_EPOCH,BSTAR,MEAN_MOTION_DOT,MEAN_MOTION_DDOT
FENGYUN 3D,2017-072A,2026-07-18T20:39:45.704160,14.19743935,.0001336,99.0150,174.8590,6.2501,353.8691,0,U,43010,999,44948,-.79314E-4,-.214E-5,0
NOAA 20 (JPSS-1),2017-073A,2026-07-18T18:58:30.527904,14.19516873,.0001516,98.7772,138.9734,120.6239,239.5086,0,U,43013,999,44895,.33271E-4,.26E-6,0
GOES 17,2018-022A,2026-07-18T13:51:38.716416,1.00270818,.0000625,1.0159,85.2106,68.0976,261.4779,0,U,43226,999,3073,0,-.19E-5,0
SENTINEL-3B,2018-039A,2026-07-18T19:38:18.674016,14.26736975,.0001233,98.6233,266.8941,118.8505,241.2799,0,U,43437,999,42863,.34917E-4,.41E-6,0
FENGYUN 2H,2018-050A,2026-07-18T18:46:38.786304,1.00266889,.0002207,3.1110,78.7054,132.7913,85.8178,0,U,43491,999,2975,0,-.134E-5,0
METOP-C,2018-087A,2026-07-18T19:30:18.243360,14.21503420,.000212,98.6627,258.8355,88.9441,271.1979,0,U,43689,999,39932,.33007E-4,.29E-6,0
GEO-KOMPSAT-2A,2018-100A,2026-07-18T17:15:20.195136,1.00272974,.0002339,0.0293,155.2837,300.9900,227.3318,0,U,43823,999,2794,0,-.35E-5,0
METEOR-M2 2,2019-038A,2026-07-18T20:31:42.525120,14.24373360,.0000467,98.9166,187.6111,355.6140,4.5034,0,U,44387,999,36580,-.84212E-5,-.65E-6,0
ARKTIKA-M 1,2021-016A,2026-07-14T09:46:38.558208,2.00611590,.7297332,63.2662,53.6722,270.0591,14.4994,0,U,47719,999,3933,0,-.301E-5,0
FENGYUN 3E,2021-062A,2026-07-18T20:11:29.937408,14.19906976,.0002063,98.7502,202.8975,32.9523,327.1782,0,U,49008,999,26107,.70143E-4,.105E-5,0
GOES 18,2022-021A,2026-07-18T14:23:38.723136,1.00272027,.0000471,0.0124,94.1316,73.8898,207.2831,0,U,51850,999,690,0,.9E-6,0
NOAA 21 (JPSS-2),2022-150A,2026-07-18T19:44:56.020704,14.19541399,.0002896,98.7059,138.0808,98.3169,261.8336,0,U,54234,999,19103,.21809E-4,.2E-7,0
METEOSAT-12 (MTG-I1),2022-170C,2026-07-18T18:58:38.631360,1.00268791,.000397,0.7290,20.3648,81.2614,119.2576,0,U,54743,999,1329,0,-.15E-6,0
TIANMU-1 03,2023-039A,2026-07-18T19:04:41.748960,15.48106176,.0002267,97.5248,15.0241,14.6601,345.4714,0,U,55973,999,18572,.16508E-3,.8562E-4,0
TIANMU-1 04,2023-039B,2026-07-18T20:04:34.113216,15.48736657,.0002653,97.5189,14.2237,358.5550,1.5692,0,U,55974,999,18574,.1659E-3,.8798E-4,0
TIANMU-1 05,2023-039C,2026-07-18T20:12:18.649728,15.48033093,.000265,97.5234,14.6761,36.4362,323.7068,0,U,55975,999,18571,.16873E-3,.8731E-4,0
TIANMU-1 06,2023-039D,2026-07-18T20:12:23.020704,15.48632833,.0002704,97.5242,15.3441,26.4499,333.6889,0,U,55976,999,18574,.16496E-3,.8715E-4,0
FENGYUN 3G,2023-055A,2026-07-18T19:42:20.944800,15.53893290,.0006925,49.9914,182.8569,72.9460,287.2266,0,U,56232,999,18492,.22149E-3,.1412E-3,0
METEOR-M2 3,2023-091A,2026-07-18T20:34:04.553760,14.24049101,.0005121,98.6066,254.1843,82.1426,278.0335,0,U,57166,999,15902,.78449E-5,-.25E-6,0
TIANMU-1 07,2023-101A,2026-07-18T21:15:23.022432,15.30139906,.000349,97.2573,249.8300,57.0343,303.1233,0,U,57399,999,16649,.11257E-3,.3209E-4,0
TIANMU-1 08,2023-101B,2026-07-18T20:27:13.655232,15.30143199,.0004256,97.2561,249.5633,36.7328,323.4204,0,U,57400,999,16648,.11324E-3,.3229E-4,0
TIANMU-1 09,2023-101C,2026-07-18T20:02:15.799776,15.30184459,.0004103,97.2520,248.9461,56.1518,304.0113,0,U,57401,999,16648,.10847E-3,.3094E-4,0
TIANMU-1 10,2023-101D,2026-07-18T20:50:39.122304,15.30158816,.0005333,97.2599,250.0618,44.2256,315.9410,0,U,57402,999,16648,.11604E-3,.3313E-4,0
FENGYUN 3F,2023-111A,2026-07-18T19:47:14.316864,14.19943783,.0001204,98.6823,269.2415,75.5143,284.6167,0,U,57490,999,15335,.20453E-4,0,0
ARKTIKA-M 2,2023-198A,2026-07-15T04:12:00.091584,2.00608092,.69107365,63.2178,151.2342,267.3397,18.7345,0,U,58584,999,1888,0,.129E-5,0
TIANMU-1 11,2023-205A,2026-07-18T21:33:01.916640,15.27284739,.000694,97.3443,220.9625,245.4346,114.6171,0,U,58645,999,14236,.10567E-3,.2752E-4,0
TIANMU-1 12,2023-205B,2026-07-18T09:53:22.905024,15.27114343,.00060948,97.3431,220.2298,220.4884,139.5903,0,U,58646,999,14227,.10886909E-3,.2823E-4,0
TIANMU-1 13,2023-205C,2026-07-18T20:07:42.028032,15.27109058,.000621,97.3460,220.9309,197.7546,162.3477,0,U,58647,999,14233,.10583E-3,.2741E-4,0
TIANMU-1 14,2023-205D,2026-07-18T21:19:25.836672,15.27153690,.0006806,97.3396,220.1370,205.1765,154.9143,0,U,58648,999,14234,.10758E-3,.2792E-4,0
TIANMU-1 19,2023-208A,2026-07-18T20:07:43.063968,15.32008618,.0004969,97.4529,316.3144,185.0539,175.0653,0,U,58660,999,14217,.14531E-3,.4412E-4,0
TIANMU-1 20,2023-208B,2026-07-18T20:26:47.988384,15.33197756,.0006695,97.4471,316.9961,198.2341,161.8662,0,U,58661,999,14227,.13825E-3,.4356E-4,0
