FENGYUN 3D              
1 43010U 17072A   26199.86094565 -.00000214  00000+0 -79314-4 0  9991
2 43010  99.0150 174.8590 0001336   6.2501 353.8691 14.19743935449485
NOAA 20 (JPSS-1)        
1 43013U 17073A   26199.79063111  .00000026  00000+0  33271-4 0  9991
2 43013  98.7772 138.9734 0001516 120.6239 239.5086 14.19516873448952
GOES 17                 
1 43226U 18022A   26199.57753144 -.00000190  00000+0  00000+0 0  9992
2 43226   1.0159  85.2106 0000625  68.0976 261.4779  1.00270818 30732
SENTINEL-3B             
1 43437U 18039A   26199.81827169  .00000041  00000+0  34917-4 0  9993
2 43437  98.6233 266.8941 0001233 118.8505 241.2799 14.26736975428634
FENGYUN 2H              
1 43491U 18050A   26199.78239336 -.00000134  00000+0  00000+0 0  9990
2 43491   3.1110  78.7054 0002207 132.7913  85.8178  1.00266889 29757
METOP-C                 
1 43689U 18087A   26199.81271115  .00000029  00000+0  33007-4 0  9994
2 43689  98.6627 258.8355 0002120  88.9441 271.1979 14.21503420399329
GEO-KOMPSAT-2A          
1 43823U 18100A   26199.71898374 -.00000350  00000+0  00000+0 0  9991
2 43823   0.0293 155.2837 0002339 300.9900 227.3318  1.00272974 27945
METEOR-M2 2             
1 44387U 19038A   26199.85535330 -.00000065  00000+0 -84212-5 0  9990
2 44387  98.9166 187.6111 0000467 355.6140   4.5034 14.24373360365804
ARKTIKA-M 1             
1 47719U 21016A   26195.40739072 -.00000301  00000+0  00000+0 0  9996
2 47719  63.2662  53.6722 7297332 270.0591  14.4994  2.00611590 39330
FENGYUN 3E              
1 49008U 21062A   26199.84131872  .00000105  00000+0  70143-4 0  9997
2 49008  98.7502 202.8975 0002063  32.9523 327.1782 14.19906976261070
GOES 18                 
1 51850U 22021A   26199.59975374  .00000090  00000+0  00000+0 0  9999
2 51850   0.0124  94.1316 0000471  73.8898 207.2831  1.00272027  6906
NOAA 21 (JPSS-2)        
1 54234U 22150A   26199.82287061  .00000002  00000+0  21809-4 0  9994
2 54234  98.7059 138.0808 0002896  98.3169 261.8336 14.19541399191036
METEOSAT-12 (MTG-I1)    
1 54743U 22170C   26199.79072490 -.00000015  00000+0  00000+0 0  9995
2 54743   0.7290  20.3648 0003970  81.2614 119.2576  1.00268791 13297
TIANMU-1 03             
1 55973U 23039A   26199.79492765  .00008562  00000+0  16508-3 0  9995
2 55973  97.5248  15.0241 0002267  14.6601 345.4714 15.48106176185724
TIANMU-1 04             
1 55974U 23039B   26199.83650594  .00008798  00000+0  16590-3 0  9999
2 55974  97.5189  14.2237 0002653 358.5550   1.5692 15.48736657185747
TIANMU-1 05             
1 55975U 23039C   26199.84188252  .00008731  00000+0  16873-3 0  9999
2 55975  97.5234  14.6761 0002650  36.4362 323.7068 15.48033093185712
TIANMU-1 06             
1 55976U 23039D   26199.84193311  .00008715  00000+0  16496-3 0  9995
2 55976  97.5242  15.3441 0002704  26.4499 333.6889 15.48632833185746
FENGYUN 3G              
1 56232U 23055A   26199.82107575  .00014120  00000+0  22149-3 0  9993
2 56232  49.9914 182.8569 0006925  72.9460 287.2266 15.53893290184927
METEOR-M2 3             
1 57166U 23091A   26199.85699715 -.00000025  00000+0  78449-5 0  9991
2 57166  98.6066 254.1843 0005121  82.1426 278.0335 14.24049101159022
TIANMU-1 07             
1 57399U 23101A   26199.88568313  .00003209  00000+0  11257-3 0  9991
2 57399  97.2573 249.8300 0003490  57.0343 303.1233 15.30139906166490
TIANMU-1 08             
1 57400U 23101B   26199.85224138  .00003229  00000+0  11324-3 0  9992
2 57400  97.2561 249.5633 0004256  36.7328 323.4204 15.30143199166485
TIANMU-1 09             
1 57401U 23101C   26199.83490509  .00003094  00000+0  10847-3 0  9997
2 57401  97.2520 248.9461 0004103  56.1518 304.0113 15.30184459166489
TIANMU-1 10             
1 57402U 23101D   26199.86850836  .00003313  00000+0  11604-3 0  9990
2 57402  97.2599 250.0618 0005333  44.2256 315.9410 15.30158816166486
FENGYUN 3F              
1 57490U 23111A   26199.82447126  .00000000  00000+0  20453-4 0  9991
2 57490  98.6823 269.2415 0001204  75.5143 284.6167 14.19943783153354
ARKTIKA-M 2             
1 58584U 23198A   26196.17500106  .00000129  00000+0  00000+0 0  9997
2 58584  63.2178 151.2342 6910736 267.3397  18.7345  2.00608092 18886
TIANMU-1 11             
1 58645U 23205A   26199.89793885  .00002752  00000+0  10567-3 0  9991
2 58645  97.3443 220.9625 0006940 245.4346 114.6171 15.27284739142368
TIANMU-1 12             
1 58646U 23205B   26199.41207066  .00002823  00000+0  10887-3 0  9995
2 58646  97.3431 220.2298 0006094 220.4884 139.5903 15.27114343142277
TIANMU-1 13             
1 58647U 23205C   26199.83868088  .00002741  00000+0  10583-3 0  9991
2 58647  97.3460 220.9309 0006210 197.7546 162.3477 15.27109058142335
TIANMU-1 14             
1 58648U 23205D   26199.88849348  .00002792  00000+0  10758-3 0  9995
2 58648  97.3396 220.1370 0006806 205.1765 154.9143 15.27153690142341
TIANMU-1 19             
1 58660U 23208A   26199.83869287  .00004412  00000+0  14531-3 0  9995
2 58660  97.4529 316.3144 0004969 185.0539 175.0653 15.32008618142170
TIANMU-1 20             
1 58661U 23208B   26199.85194431  .00004356  00000+0  13825-3 0  9992
2 58661  97.4471 316.9961 0006695 198.2341 161.8662 15.33197756142272
